{
  "links" : {
    "next" : "https://api.nasa.gov/neo/rest/v1/feed?start_date=1995-12-09&end_date=1995-12-09&detailed=true&api_key=t0TVs3DtDT2H8Oy2Zy8m2eVrNsAVKAexjcZXUckd",
    "prev" : "https://api.nasa.gov/neo/rest/v1/feed?start_date=1995-12-07&end_date=1995-12-07&detailed=true&api_key=t0TVs3DtDT2H8Oy2Zy8m2eVrNsAVKAexjcZXUckd",
    "self" : "https://api.nasa.gov/neo/rest/v1/feed?start_date=1995-12-08&end_date=1995-12-08&detailed=true&api_key=t0TVs3DtDT2H8Oy2Zy8m2eVrNsAVKAexjcZXUckd"
  },
  "element_count" : 5,
  "near_earth_objects" : {
    "1995-12-08" : [ {
      "links" : {
        "self" : "https://api.nasa.gov/neo/rest/v1/neo/3092345?api_key=t0TVs3DtDT2H8Oy2Zy8m2eVrNsAVKAexjcZXUckd"
      },
      "neo_reference_id" : "3092345",
      "name" : "(2001 SS287)",
      "nasa_jpl_url" : "http://ssd.jpl.nasa.gov/sbdb.cgi?sstr=3092345",
      "absolute_magnitude_h" : 18.3,
      "estimated_diameter" : {
        "kilometers" : {
          "estimated_diameter_min" : 0.5815070396,
          "estimated_diameter_max" : 1.30028927
        },
        "meters" : {
          "estimated_diameter_min" : 581.5070396458,
          "estimated_diameter_max" : 1300.2892700427
        },
        "miles" : {
          "estimated_diameter_min" : 0.3613316107,
          "estimated_diameter_max" : 0.807962044
        },
        "feet" : {
          "estimated_diameter_min" : 1907.8315559515,
          "estimated_diameter_max" : 4266.0410487267
        }
      },
      "is_potentially_hazardous_asteroid" : false,
      "close_approach_data" : [ {
        "close_approach_date" : "1995-12-08",
        "epoch_date_close_approach" : 818409600000,
        "relative_velocity" : {
          "kilometers_per_second" : "19.3001496201",
          "kilometers_per_hour" : "69480.5386324741",
          "miles_per_hour" : "43172.5046852726"
        },
        "miss_distance" : {
          "astronomical" : "0.3971477055",
          "lunar" : "154.4904632568",
          "kilometers" : "59412452",
          "miles" : "36917188"
        },
        "orbiting_body" : "Earth"
      } ],
      "orbital_data" : {
        "orbit_id" : "22",
        "orbit_determination_date" : "2017-04-06 09:16:03",
        "orbit_uncertainty" : "0",
        "minimum_orbit_intersection" : ".0624827",
        "jupiter_tisserand_invariant" : "2.710",
        "epoch_osculation" : "2458000.5",
        "eccentricity" : ".6758869219402301",
        "semi_major_axis" : "3.238893068291941",
        "inclination" : "18.47384237256166",
        "ascending_node_longitude" : "230.8272399702529",
        "orbital_period" : "2129.086675289391",
        "perihelion_distance" : "1.049767601870554",
        "perihelion_argument" : "173.863021292596",
        "aphelion_distance" : "5.428018534713329",
        "perihelion_time" : "2458609.682966832661",
        "mean_anomaly" : "256.9953310942828",
        "mean_motion" : ".1690865873044214",
        "equinox" : "J2000"
      }
    }, {
      "links" : {
        "self" : "https://api.nasa.gov/neo/rest/v1/neo/3529600?api_key=t0TVs3DtDT2H8Oy2Zy8m2eVrNsAVKAexjcZXUckd"
      },
      "neo_reference_id" : "3529600",
      "name" : "(2010 LA64)",
      "nasa_jpl_url" : "http://ssd.jpl.nasa.gov/sbdb.cgi?sstr=3529600",
      "absolute_magnitude_h" : 23.4,
      "estimated_diameter" : {
        "kilometers" : {
          "estimated_diameter_min" : 0.0555334912,
          "estimated_diameter_max" : 0.1241766613
        },
        "meters" : {
          "estimated_diameter_min" : 55.5334911581,
          "estimated_diameter_max" : 124.1766612574
        },
        "miles" : {
          "estimated_diameter_min" : 0.0345069009,
          "estimated_diameter_max" : 0.0771597762
        },
        "feet" : {
          "estimated_diameter_min" : 182.1964991311,
          "estimated_diameter_max" : 407.4037573197
        }
      },
      "is_potentially_hazardous_asteroid" : false,
      "close_approach_data" : [ {
        "close_approach_date" : "1995-12-08",
        "epoch_date_close_approach" : 818409600000,
        "relative_velocity" : {
          "kilometers_per_second" : "11.1525255908",
          "kilometers_per_hour" : "40149.0921267684",
          "miles_per_hour" : "24947.0844939912"
        },
        "miss_distance" : {
          "astronomical" : "0.3926966529",
          "lunar" : "152.7590026855",
          "kilometers" : "58746584",
          "miles" : "36503436"
        },
        "orbiting_body" : "Earth"
      } ],
      "orbital_data" : {
        "orbit_id" : "16",
        "orbit_determination_date" : "2017-04-06 08:57:21",
        "orbit_uncertainty" : "6",
        "minimum_orbit_intersection" : ".0941106",
        "jupiter_tisserand_invariant" : "5.075",
        "epoch_osculation" : "2458000.5",
        "eccentricity" : ".1900530163434677",
        "semi_major_axis" : "1.24667286484819",
        "inclination" : "20.25673421279182",
        "ascending_node_longitude" : "260.0125772301642",
        "orbital_period" : "508.4253390583161",
        "perihelion_distance" : "1.009738926490239",
        "perihelion_argument" : "293.0934995319861",
        "aphelion_distance" : "1.483606803206141",
        "perihelion_time" : "2457835.391425296941",
        "mean_anomaly" : "116.9081914823362",
        "mean_motion" : ".7080685645345229",
        "equinox" : "J2000"
      }
    }, {
      "links" : {
        "self" : "https://api.nasa.gov/neo/rest/v1/neo/3573154?api_key=t0TVs3DtDT2H8Oy2Zy8m2eVrNsAVKAexjcZXUckd"
      },
      "neo_reference_id" : "3573154",
      "name" : "(2011 OL5)",
      "nasa_jpl_url" : "http://ssd.jpl.nasa.gov/sbdb.cgi?sstr=3573154",
      "absolute_magnitude_h" : 20.2,
      "estimated_diameter" : {
        "kilometers" : {
          "estimated_diameter_min" : 0.2424124811,
          "estimated_diameter_max" : 0.5420507863
        },
        "meters" : {
          "estimated_diameter_min" : 242.4124811008,
          "estimated_diameter_max" : 542.0507863358
        },
        "miles" : {
          "estimated_diameter_min" : 0.1506280858,
          "estimated_diameter_max" : 0.3368146392
        },
        "feet" : {
          "estimated_diameter_min" : 795.3165644948,
          "estimated_diameter_max" : 1778.3819018419
        }
      },
      "is_potentially_hazardous_asteroid" : false,
      "close_approach_data" : [ {
        "close_approach_date" : "1995-12-08",
        "epoch_date_close_approach" : 818409600000,
        "relative_velocity" : {
          "kilometers_per_second" : "7.7752843227",
          "kilometers_per_hour" : "27991.0235617887",
          "miles_per_hour" : "17392.5335014903"
        },
        "miss_distance" : {
          "astronomical" : "0.3788236105",
          "lunar" : "147.3623809814",
          "kilometers" : "56671204",
          "miles" : "35213856"
        },
        "orbiting_body" : "Earth"
      } ],
      "orbital_data" : {
        "orbit_id" : "49",
        "orbit_determination_date" : "2017-04-06 08:53:09",
        "orbit_uncertainty" : "0",
        "minimum_orbit_intersection" : ".119386",
        "jupiter_tisserand_invariant" : "5.182",
        "epoch_osculation" : "2458000.5",
        "eccentricity" : ".1582994399307163",
        "semi_major_axis" : "1.221222962806302",
        "inclination" : "15.73210382744206",
        "ascending_node_longitude" : "105.7172765813125",
        "orbital_period" : "492.93637790342",
        "perihelion_distance" : "1.027904051763535",
        "perihelion_argument" : "64.90665549164987",
        "aphelion_distance" : "1.41454187384907",
        "perihelion_time" : "2458070.767438645122",
        "mean_anomaly" : "308.6824688820185",
        "mean_motion" : ".7303173718506408",
        "equinox" : "J2000"
      }
    } ]
  }
}